{
  "links" : {
    "next" : "https://api.nasa.gov/neo/rest/v1/feed?start_date=2011-09-09&end_date=2011-09-09&detailed=true&api_key=t0TVs3DtDT2H8Oy2Zy8m2eVrNsAVKAexjcZXUckd",
    "prev" : "https://api.nasa.gov/neo/rest/v1/feed?start_date=2011-09-07&end_date=2011-09-07&detailed=true&api_key=t0TVs3DtDT2H8Oy2Zy8m2eVrNsAVKAexjcZXUckd",
    "self" : "https://api.nasa.gov/neo/rest/v1/feed?start_date=2011-09-08&end_date=2011-09-08&detailed=true&api_key=t0TVs3DtDT2H8Oy2Zy8m2eVrNsAVKAexjcZXUckd"
  },
  "element_count" : 6,
  "near_earth_objects" : {
    "2011-09-08" : [ {
      "links" : {
        "self" : "https://api.nasa.gov/neo/rest/v1/neo/3395961?api_key=t0TVs3DtDT2H8Oy2Zy8m2eVrNsAVKAexjcZXUckd"
      },
      "neo_reference_id" : "3395961",
      "name" : "(2007 WU3)",
      "nasa_jpl_url" : "http://ssd.jpl.nasa.gov/sbdb.cgi?sstr=3395961",
      "absolute_magnitude_h" : 23.8,
      "estimated_diameter" : {
        "kilometers" : {
          "estimated_diameter_min" : 0.046190746,
          "estimated_diameter_max" : 0.1032856481
        },
        "meters" : {
          "estimated_diameter_min" : 46.1907460282,
          "estimated_diameter_max" : 103.2856480504
        },
        "miles" : {
          "estimated_diameter_min" : 0.0287015901,
          "estimated_diameter_max" : 0.0641787064
        },
        "feet" : {
          "estimated_diameter_min" : 151.544447199,
          "estimated_diameter_max" : 338.8636855496
        }
      },
      "is_potentially_hazardous_asteroid" : false,
      "close_approach_data" : [ {
        "close_approach_date" : "2011-09-08",
        "epoch_date_close_approach" : 1315465200000,
        "relative_velocity" : {
          "kilometers_per_second" : "5.5767869417",
          "kilometers_per_hour" : "20076.4329899957",
          "miles_per_hour" : "12474.7147098115"
        },
        "miss_distance" : {
          "astronomical" : "0.2096444455",
          "lunar" : "81.5516891479",
          "kilometers" : "31362364",
          "miles" : "19487670"
        },
        "orbiting_body" : "Earth"
      } ],
      "orbital_data" : {
        "orbit_id" : "12",
        "orbit_determination_date" : "2017-04-06 09:05:03",
        "orbit_uncertainty" : "2",
        "minimum_orbit_intersection" : ".0401482",
        "jupiter_tisserand_invariant" : "6.008",
        "epoch_osculation" : "2458000.5",
        "eccentricity" : ".2040117936646561",
        "semi_major_axis" : "1.01128749462238",
        "inclination" : "2.3933154479708",
        "ascending_node_longitude" : "177.6882453804585",
        "orbital_period" : "371.4585697283394",
        "perihelion_distance" : ".804972918933832",
        "perihelion_argument" : "351.9745033320571",
        "aphelion_distance" : "1.217602070310928",
        "perihelion_time" : "2457859.058519262392",
        "mean_anomaly" : "137.0783640899106",
        "mean_motion" : ".9691524959655139",
        "equinox" : "J2000"
      }
    }, {
      "links" : {
        "self" : "https://api.nasa.gov/neo/rest/v1/neo/3563708?api_key=t0TVs3DtDT2H8Oy2Zy8m2eVrNsAVKAexjcZXUckd"
      },
      "neo_reference_id" : "3563708",
      "name" : "(2011 HG)",
      "nasa_jpl_url" : "http://ssd.jpl.nasa.gov/sbdb.cgi?sstr=3563708",
      "absolute_magnitude_h" : 21.0,
      "estimated_diameter" : {
        "kilometers" : {
          "estimated_diameter_min" : 0.1677084622,
          "estimated_diameter_max" : 0.3750075218
        },
        "meters" : {
          "estimated_diameter_min" : 167.7084621628,
          "estimated_diameter_max" : 375.0075217981
        },
        "miles" : {
          "estimated_diameter_min" : 0.1042091748,
          "estimated_diameter_max" : 0.2330187988
        },
        "feet" : {
          "estimated_diameter_min" : 550.2246310023,
          "estimated_diameter_max" : 1230.3396778159
        }
      },
      "is_potentially_hazardous_asteroid" : false,
      "close_approach_data" : [ {
        "close_approach_date" : "2011-09-08",
        "epoch_date_close_approach" : 1315465200000,
        "relative_velocity" : {
          "kilometers_per_second" : "14.5835369231",
          "kilometers_per_hour" : "52500.7329232399",
          "miles_per_hour" : "32621.9137433321"
        },
        "miss_distance" : {
          "astronomical" : "0.2716519544",
          "lunar" : "105.6726074219",
          "kilometers" : "40638556",
          "miles" : "25251626"
        },
        "orbiting_body" : "Earth"
      } ],
      "orbital_data" : {
        "orbit_id" : "14",
        "orbit_determination_date" : "2017-04-06 08:53:40",
        "orbit_uncertainty" : "5",
        "minimum_orbit_intersection" : ".153585",
        "jupiter_tisserand_invariant" : "3.013",
        "epoch_osculation" : "2458000.5",
        "eccentricity" : ".6395199643437146",
        "semi_major_axis" : "2.672278834080311",
        "inclination" : "14.73691552865021",
        "ascending_node_longitude" : "42.5730849346159",
        "orbital_period" : "1595.589187392877",
        "perihelion_distance" : ".9633031693928071",
        "perihelion_argument" : "255.2343638590159",
        "aphelion_distance" : "4.381254498767814",
        "perihelion_time" : "2457382.002248426962",
        "mean_anomaly" : "139.5466905426384",
        "mean_motion" : ".2256219851854375",
        "equinox" : "J2000"
      }
    }, {
      "links" : {
        "self" : "https://api.nasa.gov/neo/rest/v1/neo/3586029?api_key=t0TVs3DtDT2H8Oy2Zy8m2eVrNsAVKAexjcZXUckd"
      },
      "neo_reference_id" : "3586029",
      "name" : "(2011 VW5)",
      "nasa_jpl_url" : "http://ssd.jpl.nasa.gov/sbdb.cgi?sstr=3586029",
      "absolute_magnitude_h" : 18.6,
      "estimated_diameter" : {
        "kilometers" : {
          "estimated_diameter_min" : 0.5064714588,
          "estimated_diameter_max" : 1.1325046106
        },
        "meters" : {
          "estimated_diameter_min" : 506.4714588346,
          "estimated_diameter_max" : 1132.5046106177
        },
        "miles" : {
          "estimated_diameter_min" : 0.3147066768,
          "estimated_diameter_max" : 0.7037055224
        },
        "feet" : {
          "estimated_diameter_min" : 1661.651821003,
          "estimated_diameter_max" : 3715.566426699
        }
      },
      "is_potentially_hazardous_asteroid" : false,
      "close_approach_data" : [ {
        "close_approach_date" : "2011-09-08",
        "epoch_date_close_approach" : 1315465200000,
        "relative_velocity" : {
          "kilometers_per_second" : "17.2088971609",
          "kilometers_per_hour" : "61952.0297792908",
          "miles_per_hour" : "38494.5820592488"
        },
        "miss_distance" : {
          "astronomical" : "0.358083847",
          "lunar" : "139.2946166992",
          "kilometers" : "53568580",
          "miles" : "33285974"
        },
        "orbiting_body" : "Earth"
      } ],
      "orbital_data" : {
        "orbit_id" : "17",
        "orbit_determination_date" : "2017-04-06 08:52:04",
        "orbit_uncertainty" : "2",
        "minimum_orbit_intersection" : ".103264",
        "jupiter_tisserand_invariant" : "3.265",
        "epoch_osculation" : "2458000.5",
        "eccentricity" : ".5451295275414911",
        "semi_major_axis" : "2.390251466491025",
        "inclination" : "16.71260103328773",
        "ascending_node_longitude" : "1.187469982541925",
        "orbital_period" : "1349.782573521964",
        "perihelion_distance" : "1.087254813857416",
        "perihelion_argument" : "20.54777403054003",
        "aphelion_distance" : "3.693248119124633",
        "perihelion_time" : "2458529.038089837490",
        "mean_anomaly" : "219.0338058336178",
        "mean_motion" : ".2667096220250186",
        "equinox" : "J2000"
      }
    } ]
  }
}